[{"OBJECT_NAME":"STARLINK-33927","OBJECT_ID":"2025-101H","EPOCH":"2025-10-21T08:58:32.395584","MEAN_MOTION":15.27576332,"ECCENTRICITY":0.00011378,"INCLINATION":43.0018,"RA_OF_ASC_NODE":65.1839,"ARG_OF_PERICENTER":271.282,"MEAN_ANOMALY":88.7902,"EPHEMERIS_TYPE":0,"CLASSIFICATION_TYPE":"U","NORAD_CAT_ID":64001,"ELEMENT_SET_NO":999,"REV_AT_EPOCH":2574,"BSTAR":0.0014062839,"MEAN_MOTION_DOT":0.00038634,"MEAN_MOTION_DDOT":0},{"OBJECT_NAME":"STARLINK-33898","OBJECT_ID":"2025-101J","EPOCH":"2025-10-21T08:47:25.415232","MEAN_MOTION":15.27593385,"ECCENTRICITY":0.00020541,"INCLINATION":43.0032,"RA_OF_ASC_NODE":65.1202,"ARG_OF_PERICENTER":261.6835,"MEAN_ANOMALY":98.3784,"EPHEMERIS_TYPE":0,"CLASSIFICATION_TYPE":"U","NORAD_CAT_ID":64002,"ELEMENT_SET_NO":999,"REV_AT_EPOCH":2574,"BSTAR":0.0012928461,"MEAN_MOTION_DOT":0.00035501,"MEAN_MOTION_DDOT":0},{"OBJECT_NAME":"STARLINK-33928","OBJECT_ID":"2025-101K","EPOCH":"2025-10-21T09:03:52.264800","MEAN_MOTION":15.2759266,"ECCENTRICITY":0.00012156,"INCLINATION":43.0001,"RA_OF_ASC_NODE":64.346,"ARG_OF_PERICENTER":268.4377,"MEAN_ANOMALY":91.6335,"EPHEMERIS_TYPE":0,"CLASSIFICATION_TYPE":"U","NORAD_CAT_ID":64003,"ELEMENT_SET_NO":999,"REV_AT_EPOCH":2575,"BSTAR":0.0016353166,"MEAN_MOTION_DOT":0.00045031,"MEAN_MOTION_DDOT":0},{"OBJECT_NAME":"STARLINK-33758","OBJECT_ID":"2025-101L","EPOCH":"2025-10-21T02:04:53.659488","MEAN_MOTION":15.2759551,"ECCENTRICITY":0.00013226,"INCLINATION":43.004,"RA_OF_ASC_NODE":66.4634,"ARG_OF_PERICENTER":274.0161,"MEAN_ANOMALY":86.054,"EPHEMERIS_TYPE":0,"CLASSIFICATION_TYPE":"U","NORAD_CAT_ID":64004,"ELEMENT_SET_NO":999,"REV_AT_EPOCH":2570,"BSTAR":0.0016586428,"MEAN_MOTION_DOT":0.00045685,"MEAN_MOTION_DDOT":0},{"OBJECT_NAME":"STARLINK-33936","OBJECT_ID":"2025-101M","EPOCH":"2025-10-21T18:56:33.413568","MEAN_MOTION":15.27618652,"ECCENTRICITY":0.0001766,"INCLINATION":43.0032,"RA_OF_ASC_NODE":62.2754,"ARG_OF_PERICENTER":265.6941,"MEAN_ANOMALY":94.3709,"EPHEMERIS_TYPE":0,"CLASSIFICATION_TYPE":"U","NORAD_CAT_ID":64005,"ELEMENT_SET_NO":999,"REV_AT_EPOCH":2581,"BSTAR":0.0018308,"MEAN_MOTION_DOT":0.00050522,"MEAN_MOTION_DDOT":0},{"OBJECT_NAME":"STARLINK-33931","OBJECT_ID":"2025-101N","EPOCH":"2025-10-21T16:56:29.959584","MEAN_MOTION":15.27600473,"ECCENTRICITY":0.0001772,"INCLINATION":43.0021,"RA_OF_ASC_NODE":62.5071,"ARG_OF_PERICENTER":261.0124,"MEAN_ANOMALY":99.0527,"EPHEMERIS_TYPE":0,"CLASSIFICATION_TYPE":"U","NORAD_CAT_ID":64006,"ELEMENT_SET_NO":999,"REV_AT_EPOCH":2582,"BSTAR":0.0014568,"MEAN_MOTION_DOT":0.0004007,"MEAN_MOTION_DDOT":0},{"OBJECT_NAME":"STARLINK-33759","OBJECT_ID":"2025-101P","EPOCH":"2025-10-21T09:20:30.263424","MEAN_MOTION":15.2756752,"ECCENTRICITY":0.00015768,"INCLINATION":43,"RA_OF_ASC_NODE":64.4272,"ARG_OF_PERICENTER":273.6214,"MEAN_ANOMALY":86.4457,"EPHEMERIS_TYPE":0,"CLASSIFICATION_TYPE":"U","NORAD_CAT_ID":64007,"ELEMENT_SET_NO":999,"REV_AT_EPOCH":2575,"BSTAR":0.0012217368,"MEAN_MOTION_DOT":0.00033498,"MEAN_MOTION_DDOT":0},{"OBJECT_NAME":"STARLINK-34163","OBJECT_ID":"2025-101Q","EPOCH":"2025-10-21T10:03:05.501952","MEAN_MOTION":15.27591407,"ECCENTRICITY":0.00014403,"INCLINATION":43.0039,"RA_OF_ASC_NODE":64.655,"ARG_OF_PERICENTER":292.7395,"MEAN_ANOMALY":67.3304,"EPHEMERIS_TYPE":0,"CLASSIFICATION_TYPE":"U","NORAD_CAT_ID":64008,"ELEMENT_SET_NO":999,"REV_AT_EPOCH":2575,"BSTAR":0.0012589296,"MEAN_MOTION_DOT":0.00034555,"MEAN_MOTION_DDOT":0},{"OBJECT_NAME":"STARLINK-34077","OBJECT_ID":"2025-101R","EPOCH":"2025-10-21T18:43:35.967360","MEAN_MOTION":15.27629158,"ECCENTRICITY":0.000139,"INCLINATION":43.0023,"RA_OF_ASC_NODE":62.2021,"ARG_OF_PERICENTER":274.7934,"MEAN_ANOMALY":85.2759,"EPHEMERIS_TYPE":0,"CLASSIFICATION_TYPE":"U","NORAD_CAT_ID":64009,"ELEMENT_SET_NO":999,"REV_AT_EPOCH":2581,"BSTAR":0.0018014,"MEAN_MOTION_DOT":0.00049719,"MEAN_MOTION_DDOT":0},{"OBJECT_NAME":"STARLINK-34113","OBJECT_ID":"2025-101S","EPOCH":"2025-10-21T08:40:01.568928","MEAN_MOTION":15.2745179,"ECCENTRICITY":0.00012949,"INCLINATION":43.0034,"RA_OF_ASC_NODE":65.0786,"ARG_OF_PERICENTER":245.1582,"MEAN_ANOMALY":114.9135,"EPHEMERIS_TYPE":0,"CLASSIFICATION_TYPE":"U","NORAD_CAT_ID":64010,"ELEMENT_SET_NO":999,"REV_AT_EPOCH":2574,"BSTAR":0.0010989677,"MEAN_MOTION_DOT":0.00029984,"MEAN_MOTION_DDOT":0},{"OBJECT_NAME":"STARLINK-34193","OBJECT_ID":"2025-101T","EPOCH":"2025-10-21T08:38:10.603680","MEAN_MOTION":15.27591997,"ECCENTRICITY":0.00011563,"INCLINATION":43.0034,"RA_OF_ASC_NODE":65.0691,"ARG_OF_PERICENTER":259.7434,"MEAN_ANOMALY":100.3288,"EPHEMERIS_TYPE":0,"CLASSIFICATION_TYPE":"U","NORAD_CAT_ID":64011,"ELEMENT_SET_NO":999,"REV_AT_EPOCH":2574,"BSTAR":0.0018699199,"MEAN_MOTION_DOT":0.00051573,"MEAN_MOTION_DDOT":0},{"OBJECT_NAME":"STARLINK-34078","OBJECT_ID":"2025-101U","EPOCH":"2025-10-21T09:14:58.388928","MEAN_MOTION":15.27598025,"ECCENTRICITY":5.456e-5,"INCLINATION":42.9987,"RA_OF_ASC_NODE":64.4006,"ARG_OF_PERICENTER":280.0822,"MEAN_ANOMALY":79.9968,"EPHEMERIS_TYPE":0,"CLASSIFICATION_TYPE":"U","NORAD_CAT_ID":64012,"ELEMENT_SET_NO":999,"REV_AT_EPOCH":2575,"BSTAR":0.0014367752,"MEAN_MOTION_DOT":0.00039509,"MEAN_MOTION_DDOT":0},{"OBJECT_NAME":"STARLINK-34182","OBJECT_ID":"2025-101V","EPOCH":"2025-10-21T08:42:34.534080","MEAN_MOTION":15.2758997,"ECCENTRICITY":0.00013315,"INCLINATION":43.0018,"RA_OF_ASC_NODE":61.6307,"ARG_OF_PERICENTER":271.9974,"MEAN_ANOMALY":88.0725,"EPHEMERIS_TYPE":0,"CLASSIFICATION_TYPE":"U","NORAD_CAT_ID":64013,"ELEMENT_SET_NO":999,"REV_AT_EPOCH":2578,"BSTAR":0.0014608597,"MEAN_MOTION_DOT":0.00040169,"MEAN_MOTION_DDOT":0},{"OBJECT_NAME":"STARLINK-34192","OBJECT_ID":"2025-101W","EPOCH":"2025-10-21T18:16:03.964800","MEAN_MOTION":15.27593784,"ECCENTRICITY":0.000154,"INCLINATION":43.0038,"RA_OF_ASC_NODE":62.9193,"ARG_OF_PERICENTER":268.1965,"MEAN_ANOMALY":91.871,"EPHEMERIS_TYPE":0,"CLASSIFICATION_TYPE":"U","NORAD_CAT_ID":64014,"ELEMENT_SET_NO":999,"REV_AT_EPOCH":2580,"BSTAR":0.0014481,"MEAN_MOTION_DOT":0.00039817,"MEAN_MOTION_DDOT":0},{"OBJECT_NAME":"STARLINK-34093","OBJECT_ID":"2025-101X","EPOCH":"2025-10-21T09:24:13.006944","MEAN_MOTION":15.2760261,"ECCENTRICITY":4.848e-5,"INCLINATION":42.9981,"RA_OF_ASC_NODE":64.4465,"ARG_OF_PERICENTER":281.0538,"MEAN_ANOMALY":79.026,"EPHEMERIS_TYPE":0,"CLASSIFICATION_TYPE":"U","NORAD_CAT_ID":64015,"ELEMENT_SET_NO":999,"REV_AT_EPOCH":2575,"BSTAR":0.0014980762,"MEAN_MOTION_DOT":0.00041221,"MEAN_MOTION_DDOT":0},{"OBJECT_NAME":"STARLINK-34016","OBJECT_ID":"2025-101Y","EPOCH":"2025-10-21T18:41:44.913120","MEAN_MOTION":15.27646287,"ECCENTRICITY":0.0003253,"INCLINATION":43.0014,"RA_OF_ASC_NODE":62.1898,"ARG_OF_PERICENTER":245.7641,"MEAN_ANOMALY":114.2871,"EPHEMERIS_TYPE":0,"CLASSIFICATION_TYPE":"U","NORAD_CAT_ID":64016,"ELEMENT_SET_NO":999,"REV_AT_EPOCH":2581,"BSTAR":0.0026136,"MEAN_MOTION_DOT":0.00072522,"MEAN_MOTION_DDOT":0},{"OBJECT_NAME":"STARLINK-34161","OBJECT_ID":"2025-101Z","EPOCH":"2025-10-21T09:29:46.054752","MEAN_MOTION":15.27593094,"ECCENTRICITY":0.00012959,"INCLINATION":43.0021,"RA_OF_ASC_NODE":64.4754,"ARG_OF_PERICENTER":265.5213,"MEAN_ANOMALY":94.5491,"EPHEMERIS_TYPE":0,"CLASSIFICATION_TYPE":"U","NORAD_CAT_ID":64017,"ELEMENT_SET_NO":999,"REV_AT_EPOCH":2575,"BSTAR":0.0013169029,"MEAN_MOTION_DOT":0.00036168,"MEAN_MOTION_DDOT":0},{"OBJECT_NAME":"STARLINK-34162","OBJECT_ID":"2025-101AA","EPOCH":"2025-10-21T01:57:29.380320","MEAN_MOTION":15.27575696,"ECCENTRICITY":0.00014652,"INCLINATION":43.0017,"RA_OF_ASC_NODE":66.42,"ARG_OF_PERICENTER":268.2961,"MEAN_ANOMALY":91.7722,"EPHEMERIS_TYPE":0,"CLASSIFICATION_TYPE":"U","NORAD_CAT_ID":64018,"ELEMENT_SET_NO":999,"REV_AT_EPOCH":2570,"BSTAR":0.0014256581,"MEAN_MOTION_DOT":0.00039172,"MEAN_MOTION_DDOT":0},{"OBJECT_NAME":"STARLINK-34155","OBJECT_ID":"2025-101AB","EPOCH":"2025-10-21T09:59:22.780032","MEAN_MOTION":15.27593041,"ECCENTRICITY":9.36e-5,"INCLINATION":43.0043,"RA_OF_ASC_NODE":64.6287,"ARG_OF_PERICENTER":276.6786,"MEAN_ANOMALY":83.3959,"EPHEMERIS_TYPE":0,"CLASSIFICATION_TYPE":"U","NORAD_CAT_ID":64019,"ELEMENT_SET_NO":999,"REV_AT_EPOCH":2575,"BSTAR":0.0013659473,"MEAN_MOTION_DOT":0.00037532,"MEAN_MOTION_DDOT":0},{"OBJECT_NAME":"STARLINK-34141","OBJECT_ID":"2025-101AC","EPOCH":"2025-10-21T02:03:02.602656","MEAN_MOTION":15.27596071,"ECCENTRICITY":0.00013182,"INCLINATION":43.0026,"RA_OF_ASC_NODE":66.4461,"ARG_OF_PERICENTER":270.9466,"MEAN_ANOMALY":89.1235,"EPHEMERIS_TYPE":0,"CLASSIFICATION_TYPE":"U","NORAD_CAT_ID":64020,"ELEMENT_SET_NO":999,"REV_AT_EPOCH":2570,"BSTAR":0.0017435803,"MEAN_MOTION_DOT":0.00048054,"MEAN_MOTION_DDOT":0},{"OBJECT_NAME":"STARLINK-34062","OBJECT_ID":"2025-101AD","EPOCH":"2025-10-21T17:13:08.988096","MEAN_MOTION":15.27613906,"ECCENTRICITY":0.0001507,"INCLINATION":43.0029,"RA_OF_ASC_NODE":62.5869,"ARG_OF_PERICENTER":294.094,"MEAN_ANOMALY":65.9754,"EPHEMERIS_TYPE":0,"CLASSIFICATION_TYPE":"U","NORAD_CAT_ID":64021,"ELEMENT_SET_NO":999,"REV_AT_EPOCH":2580,"BSTAR":0.0012482,"MEAN_MOTION_DOT":0.00034281,"MEAN_MOTION_DDOT":0},{"OBJECT_NAME":"STARLINK-34051","OBJECT_ID":"2025-102A","EPOCH":"2025-10-21T20:07:50.726784","MEAN_MOTION":14.98343388,"ECCENTRICITY":0.0003198,"INCLINATION":70.0002,"RA_OF_ASC_NODE":104.5531,"ARG_OF_PERICENTER":272.2708,"MEAN_ANOMALY":87.8085,"EPHEMERIS_TYPE":0,"CLASSIFICATION_TYPE":"U","NORAD_CAT_ID":64022,"ELEMENT_SET_NO":999,"REV_AT_EPOCH":2515,"BSTAR":0.00074898,"MEAN_MOTION_DOT":8.858e-5,"MEAN_MOTION_DDOT":0},{"OBJECT_NAME":"STARLINK-34184","OBJECT_ID":"2025-102B","EPOCH":"2025-10-21T18:55:31.469952","MEAN_MOTION":14.98335285,"ECCENTRICITY":0.0002969,"INCLINATION":70.0004,"RA_OF_ASC_NODE":104.7772,"ARG_OF_PERICENTER":269.432,"MEAN_ANOMALY":90.6499,"EPHEMERIS_TYPE":0,"CLASSIFICATION_TYPE":"U","NORAD_CAT_ID":64023,"ELEMENT_SET_NO":999,"REV_AT_EPOCH":2515,"BSTAR":0.00056231,"MEAN_MOTION_DOT":6.624e-5,"MEAN_MOTION_DDOT":0}]
